OBJECT_NAME,OBJECT_ID,EPOCH,MEAN_MOTION,ECCENTRICITY,INCLINATION,RA_OF_ASC_NODE,ARG_OF_PERICENTER,MEAN_ANOMALY,EPHEMERIS_TYPE,CLASSIFICATION_TYPE,NORAD_CAT_ID,ELEMENT_SET_NO,REV_AT_EPOCH,BSTAR,MEAN_MOTION_DOT,MEAN_MOTION_DDOT
EYESAT A (AO-27),1993-061C,2026-07-22T14:11:01.356288,14.30950444,.00083289,98.6861,270.9883,4.7380,355.3880,0,U,22825,999,71206,.36651684E-4,.52E-6,0
ITAMSAT (IO-26),1993-061D,2026-07-22T03:22:11.969184,14.31378090,.00085327,98.6809,270.4591,348.6901,11.4089,0,U,22826,999,71231,.33907411E-4,.45E-6,0
RADIO ROSTO (RS15),1994-085A,2026-07-22T12:04:12.758016,11.27583643,.01571971,64.8140,246.1018,357.3644,2.6437,0,U,23439,999,29988,.21751931E-3,-.35E-6,0
JAS-2 (FO-29),1996-046B,2026-07-22T10:17:54.563136,13.53275827,.0350009,98.5216,47.4701,5.1853,355.2765,0,U,24278,999,47793,-.9704668E-5,-.45E-6,0
FORTE,1997-047A,2026-07-22T07:54:25.673184,14.27957481,.00241518,69.9541,294.6433,234.7098,125.1765,0,U,24920,999,50370,.65272024E-4,.104E-5,0
NOAA 15,1998-030A,2026-07-22T12:30:14.996160,14.27155704,.00091503,98.5065,223.1985,240.5035,119.5234,0,U,25338,999,46633,.39217286E-4,.53E-6,0
TECHSAT 1B (GO-32),1998-043D,2026-07-22T11:12:09.929376,14.24434333,.00023271,99.0091,197.1189,103.4335,256.7103,0,U,25397,999,45635,.35821596E-4,.36E-6,0
ISS (ZARYA),1998-067A,2026-07-22T03:40:37.502112,15.49090344,.00068832,51.6313,127.0562,324.3803,35.6725,0,U,25544,999,57717,.16818085E-3,.8859E-4,0
ORSTED,1999-008B,2026-07-22T06:17:35.915136,14.51838708,.01335096,96.4794,102.8048,74.3768,287.2119,0,U,25635,999,44705,.11490428E-3,.488E-5,0
LANDSAT 7,1999-020A,2026-07-22T12:27:52.533792,14.63942708,.00014326,97.8594,205.5380,77.1735,20.9366,0,U,25682,999,45101,.63510811E-4,.288E-5,0
ORBCOMM FM36,1999-065E,2026-07-22T10:34:21.933696,14.39257577,.00042636,45.0398,352.2184,157.7438,202.3597,0,U,25984,999,39206,.25432197E-3,.653E-5,0
DMSP 5D-3 F15 (USA 147),1999-067A,2026-07-22T14:32:43.863936,14.17573613,.0008836,98.9946,242.6004,260.4187,264.8829,0,U,25991,999,37566,.69288979E-4,.95E-6,0
OPAL (OO-38),2000-004C,2026-07-22T07:34:05.350944,14.37976211,.00351052,100.1912,146.6183,296.4254,63.3326,0,U,26063,999,38833,.50507639E-4,.94E-6,0
IMAGE,2000-017A,2026-07-20T11:27:45.592128,1.68666956,.74093077,94.2547,315.8054,284.0475,10.0856,0,U,26113,999,16206,0,-.64E-6,0
CLUSTER II-FM7 (SAMBA),2000-041A,2026-07-20T14:26:37.417344,0.44850593,.90917143,149.8020,56.9135,274.4939,359.4480,0,U,26410,999,2046,0,.10308E-3,-.3041523E-5
CLUSTER II-FM8 (TANGO),2000-045B,2026-07-21T04:54:55.733472,0.44419737,.90954359,149.9880,58.2030,275.6486,2.0940,0,U,26464,999,2046,0,.10744E-3,-.2732326E-5
MEGSAT-1,2000-057B,2026-07-21T14:49:49.044864,15.05655123,.00432981,64.5499,318.7645,279.9233,79.6998,0,U,26546,999,40284,.14494388E-3,.1958E-4,0
PHASE 3D (AO-40),2000-072B,2026-07-22T06:20:37.100256,1.25588990,.79338557,9.3806,345.3787,189.5276,132.2281,0,U,26609,999,11795,0,-.14E-5,0
ODIN,2001-007A,2026-07-22T02:18:42.187104,15.94340343,.00045746,97.3694,246.6856,165.2192,194.9218,0,U,26702,999,39492,.16232712E-2,.602498E-2,.15102514E-3
OMNI-M1,2001-026A,2026-07-22T03:14:54.138912,3.92402296,.00134435,44.8224,237.2081,58.6946,301.4898,0,U,26857,999,20694,0,.12E-6,0
PCSAT (NO-44),2001-043C,2026-07-22T13:41:55.759200,14.31967120,.00058544,67.0504,152.7531,267.2879,92.7553,0,U,26931,999,29551,.69793191E-4,.104E-5,0
PROBA-1,2001-049B,2026-07-22T13:55:03.569088,15.07634542,.00549243,97.9606,213.3518,4.8242,355.3503,0,U,26958,999,34895,.14314688E-3,.2184E-4,0
SPOT 5,2002-021A,2026-07-22T12:35:45.241152,14.54772692,.01299378,97.9832,240.8199,165.9186,194.5691,0,U,27421,999,26798,.71061759E-4,.292E-5,0
FENGYUN 1D,2002-024B,2026-07-22T13:15:17.607168,14.10228593,.00161095,98.9498,253.7176,140.6828,219.5515,0,U,27431,999,24446,.28055163E-4,.5E-7,0
SAUDISAT 1C (SO-50),2002-058C,2026-07-22T11:44:12.681024,14.83108843,.00742978,64.5523,19.7554,255.9504,103.3336,0,U,27607,999,26969,.10552256E-3,.746E-5,0
CORIOLIS,2003-001A,2026-07-22T00:09:48.675168,14.19953324,.00151344,98.7139,209.3614,110.9935,249.2862,0,U,27640,999,21916,.61467108E-4,.87E-6,0
CUTE-1 (CO-55),2003-031E,2026-07-22T00:29:25.515744,14.24354732,.00108651,98.6746,211.1424,85.1990,275.0430,0,U,27844,999,19663,.12598932E-3,.248E-5,0
CUBESAT XI-IV (CO-57),2003-031J,2026-07-21T11:08:22.386336,14.23636890,.00107004,98.6777,210.2780,103.0346,257.2027,0,U,27848,999,19625,.94003799E-4,.171E-5,0
MOZHAETS 4 (RS22),2003-042A,2026-07-22T15:52:22.258272,14.73522154,.00118333,98.3486,29.0251,150.1959,282.2981,0,U,27939,999,22077,.84520536E-4,.496E-5,0
