{"epoch":1784762836,"count":18316,"objects":[{"id":"22825","name":"EYESAT A","type":"PAYLOAD","l1":"1 22825U 93061C   26203.59098792  .00000052  00000-0  36652-4 0  9993","l2":"2 22825  98.6861 270.9883 0008329   4.7380 355.3880 14.30950444712062"},{"id":"22826","name":"ITAMSAT","type":"PAYLOAD","l1":"1 22826U 93061D   26203.14041631  .00000045  00000-0  33907-4 0  9997","l2":"2 22826  98.6809 270.4591 0008533 348.6901  11.4089 14.31378090712313"},{"id":"23439","name":"RADIO ROSTO","type":"PAYLOAD","l1":"1 23439U 94085A   26203.50292544 -.00000035  00000-0  21752-3 0  9990","l2":"2 23439  64.8140 246.1018 0157197 357.3644   2.6437 11.27583643299888"},{"id":"24278","name":"JAS 2","type":"PAYLOAD","l1":"1 24278U 96046B   26203.42910374 -.00000045  00000-0 -97047-5 0  9994","l2":"2 24278  98.5216  47.4701 0350009   5.1853 355.2765 13.53275827477934"},{"id":"24920","name":"FORTE","type":"PAYLOAD","l1":"1 24920U 97047A   26203.32946381  .00000104  00000-0  65272-4 0  9994","l2":"2 24920  69.9541 294.6433 0024152 234.7098 125.1765 14.27957481503701"},{"id":"25338","name":"NOAA 15","type":"PAYLOAD","l1":"1 25338U 98030A   26203.52100690  .00000053  00000-0  39217-4 0  9991","l2":"2 25338  98.5065 223.1985 0009150 240.5035 119.5234 14.27155704466333"},{"id":"25397","name":"TECHSAT 1B","type":"PAYLOAD","l1":"1 25397U 98043D   26203.46678159  .00000036  00000-0  35822-4 0  9992","l2":"2 25397  99.0091 197.1189 0002327 103.4335 256.7103 14.24434333456353"},{"id":"25544","name":"ISS (ZARYA)","type":"PAYLOAD","l1":"1 25544U 98067A   26203.15321183  .00008859  00000-0  16818-3 0  9994","l2":"2 25544  51.6313 127.0562 0006883 324.3803  35.6725 15.49090344577176"},{"id":"25635","name":"ORSTED","type":"PAYLOAD","l1":"1 25635U 99008B   26203.26222124  .00000488  00000-0  11490-3 0  9999","l2":"2 25635  96.4794 102.8048 0133510  74.3768 287.2119 14.51838708447058"},{"id":"25682","name":"LANDSAT 7","type":"PAYLOAD","l1":"1 25682U 99020A   26203.51935803  .00000288  00000-0  63511-4 0  9998","l2":"2 25682  97.8594 205.5380 0001433  77.1735  20.9366 14.63942708451012"},{"id":"25984","name":"ORBCOMM FM 36","type":"PAYLOAD","l1":"1 25984U 99065E   26203.44053164  .00000653  00000-0  25432-3 0  9990","l2":"2 25984  45.0398 352.2184 0004264 157.7438 202.3597 14.39257577392063"},{"id":"25991","name":"DMSP 5D-2 F15 (USA 147)","type":"PAYLOAD","l1":"1 25991U 99067A   26203.60606324  .00000095  00000-0  69289-4 0  9999","l2":"2 25991  98.9946 242.6004 0008836 260.4187 264.8829 14.17573613375668"},{"id":"26063","name":"OPAL","type":"PAYLOAD","l1":"1 26063U 00004C   26203.31533971  .00000094  00000-0  50508-4 0  9991","l2":"2 26063 100.1912 146.6183 0035105 296.4254  63.3326 14.37976211388337"},{"id":"26113","name":"IMAGE","type":"PAYLOAD","l1":"1 26113U 00017A   26201.47761102 -.00000064  00000-0  00000-0 0  9991","l2":"2 26113  94.2547 315.8054 7409308 284.0475  10.0856  1.68666956162061"},{"id":"26410","name":"CLUSTER II-FM7","type":"PAYLOAD","l1":"1 26410U 00041A   26201.60182196  .00010308 -30415-5  00000-0 0  9993","l2":"2 26410 149.8020  56.9135 9091714 274.4939 359.4480  0.44850593 20460"},{"id":"26464","name":"CLUSTER II-FM8","type":"PAYLOAD","l1":"1 26464U 00045B   26202.20481173  .00010744 -27323-5  00000-0 0  9998","l2":"2 26464 149.9880  58.2030 9095436 275.6486   2.0940  0.44419737 20461"},{"id":"26546","name":"MEGSAT 1","type":"PAYLOAD","l1":"1 26546U 00057B   26202.61792876  .00001958  00000-0  14494-3 0  9991","l2":"2 26546  64.5499 318.7645 0043298 279.9233  79.6998 15.05655123402846"},{"id":"26609","name":"AMSAT OSCAR 40","type":"PAYLOAD","l1":"1 26609U 00072B   26203.26431829 -.00000140  00000-0  00000-0 0  9996","l2":"2 26609   9.3806 345.3787 7933856 189.5276 132.2281  1.25588990117956"},{"id":"26702","name":"ODIN","type":"PAYLOAD","l1":"1 26702U 01007A   26203.09632161  .00602498  15103-3  16233-2 0  9995","l2":"2 26702  97.3694 246.6856 0004575 165.2192 194.9218 15.94340343394928"},{"id":"26857","name":"OMNI-M1","type":"PAYLOAD","l1":"1 26857U 01026A   26203.13534883  .00000012  00000-0  00000-0 0  9998","l2":"2 26857  44.8224 237.2081 0013443  58.6946 301.4898  3.92402296206941"},{"id":"26931","name":"PCSAT","type":"PAYLOAD","l1":"1 26931U 01043C   26203.57078425  .00000104  00000-0  69793-4 0  9993","l2":"2 26931  67.0504 152.7531 0005854 267.2879  92.7553 14.31967120295519"},{"id":"26958","name":"PROBA 1","type":"PAYLOAD","l1":"1 26958U 01049B   26203.57990242  .00002184  00000-0  14315-3 0  9997","l2":"2 26958  97.9606 213.3518 0054924   4.8242 355.3503 15.07634542348956"},{"id":"27421","name":"SPOT 5","type":"PAYLOAD","l1":"1 27421U 02021A   26203.52482918  .00000292  00000-0  71062-4 0  9996","l2":"2 27421  97.9832 240.8199 0129938 165.9186 194.5691 14.54772692267981"},{"id":"27431","name":"FENGYUN 1D","type":"PAYLOAD","l1":"1 27431U 02024B   26203.55228712  .00000005  00000-0  28055-4 0  9999","l2":"2 27431  98.9498 253.7176 0016110 140.6828 219.5515 14.10228593244468"},{"id":"27607","name":"SAUDISAT 1C","type":"PAYLOAD","l1":"1 27607U 02058C   26203.48903566  .00000746  00000-0  10552-3 0  9994","l2":"2 27607  64.5523  19.7554 0074298 255.9504 103.3336 14.83108843269691"},{"id":"27640","name":"CORIOLIS","type":"PAYLOAD","l1":"1 27640U 03001A   26203.00681337  .00000087  00000-0  61467-4 0  9997","l2":"2 27640  98.7139 209.3614 0015134 110.9935 249.2862 14.19953324219168"},{"id":"27844","name":"CUTE-1","type":"PAYLOAD","l1":"1 27844U 03031E   26203.02043421  .00000248  00000-0  12599-3 0  9994","l2":"2 27844  98.6746 211.1424 0010865  85.1990 275.0430 14.24354732196635"},{"id":"27848","name":"CUBESAT XI 4","type":"PAYLOAD","l1":"1 27848U 03031J   26202.46414799  .00000171  00000-0  94004-4 0  9992","l2":"2 27848  98.6777 210.2780 0010700 103.0346 257.2027 14.23636890196250"},{"id":"27939","name":"MOZHAYETS 4","type":"PAYLOAD","l1":"1 27939U 03042A   26203.66136873  .00000496  00000-0  84521-4 0  9995","l2":"2 27939  98.3486  29.0251 0011833 150.1959 282.2981 14.73522154220779"}]}